CUBEBUG-2 (LO-74)       
1 39440U 13066AA  26187.28715879  .00004323  00000+0  39945-3 0  9991
2 39440  97.8914 136.3484 0056285 325.7872  33.9725 14.93930627679846
FUNCUBE-1 (AO-73)       
1 39444U 13066AE  26186.88139067  .00008644  00000+0  53111-3 0  9990
2 39444  97.8282 158.7205 0037438 138.2012 222.2087 15.09732686682480
UWE-3                   
1 39446U 13066AG  26186.86326104  .00003804  00000+0  32715-3 0  9990
2 39446  97.8703 143.0659 0047415 257.1230 102.4692 14.97161754680374
UNISAT-6                
1 40012U 14033C   26187.09280115  .00003080  00000+0  33266-3 0  9991
2 40012  97.7903 339.4747 0044941   7.9991 352.1932 14.88340747648973
DUCHIFAT-1              
1 40021U 14033M   26187.12016923  .00142130  00000+0  12107-2 0  9999
2 40021  98.0430 249.0015 0000989 273.0857  87.0289 15.69113634658712
QB50P1                  
1 40025U 14033R   26186.99754083  .00009146  00000+0  44555-3 0  9995
2 40025  98.0967 199.4657 0009703 152.3577 207.8173 15.18568137655887
LILACSAT-2              
1 40908U 15049K   26187.23098956  .00016647  00000+0  27667-3 0  9990
2 40908  97.4624 224.8017 0007614 168.9328 191.2093 15.52121757598704
FOX-1A (AO-85)          
1 40967U 15058D   26187.20004273  .00002712  00000+0  24664-3 0  9993
2 40967  64.7733 219.8938 0131668  49.2258 312.0192 14.91054611116405
CAS-2T & KS-1Q          
1 41847U 16066G   26187.14811132  .00001511  00000+0  21841-3 0  9994
2 41847  98.3815 262.6674 0342665  72.1432 291.6818 14.44755715507536
RADFXSAT (FOX-1B)       
1 43017U 17073E   26187.05851868  .00007818  00000+0  34123-3 0  9997
2 43017  97.4676  53.8880 0148162 263.3819  95.0530 15.12980276468249
DIWATA-2B               
1 43678U 18084H   26187.24206240  .00001151  00000+0  96352-4 0  9999
2 43678  98.1213  24.2825 0013059 111.4950 248.7667 15.00536738419075
ES'HAIL 2               
1 43700U 18090A   26186.93828420  .00000158  00000+0  00000+0 0  9993
2 43700   0.0170  67.3752 0002290  77.4049 142.7409  1.00274247 27865
FOX-1CLIFF (AO-95)      
1 43770U 18099N   26187.14808144  .00011089  00000+0  41898-3 0  9993
2 43770  97.4372 247.3283 0006893 278.7203  81.3255 15.27141617416111
ITASAT                  
1 43786U 18099AE  26187.12322814  .00006673  00000+0  31880-3 0  9996
2 43786  97.4014 238.2585 0010719 287.2873  72.7188 15.19307426415789
JY1SAT (JO-97)          
1 43803U 18099AX  26186.62217810  .00022572  00000+0  68069-3 0  9994
2 43803  97.4115 249.5264 0005983 188.7802 171.3337 15.34293802416450
UWE-4                   
1 43880U 18111E   26186.78293923  .00043173  00000+0  84254-3 0  9994
2 43880  97.5843 116.0459 0004683 235.7756 124.3050 15.47365913413651
TIANYAN 01              
1 44881U 19093C   26187.29595525  .00001741  00000+0  20225-3 0  9999
2 44881  97.7520 259.0620 0014322  29.9533 330.2499 14.86554685354255
RS-44 & BREEZE-KM R/B   
1 44909U 19096E   26186.84679268  .00000031  00000+0  72538-4 0  9996
2 44909  82.5236 327.3051 0218589 100.7408 261.8383 12.79748982304733
SALSAT                  
1 46495U 20068K   26186.98192541  .00008505  00000+0  29470-3 0  9998
2 46495  97.8857 191.1942 0008327 228.1198 131.9331 15.30081867318239
XW-3 (CAS-9)            
1 50466U 21131B   26187.28361009  .00000795  00000+0  25904-3 0  9995
2 50466  98.4984 279.5705 0005054  52.9643 307.2007 14.41377227237866
GREENCUBE (IO-117)      
1 53109U 22080E   26186.23812326 -.00000003  00000+0  00000+0 0  9992
2 53109  70.1429 291.9681 0008935 285.8124  74.1550  6.42583233 93228
UMKA 1 (RS40S)          
1 57172U 23091G   26187.17344001  .00006611  00000+0  30008-3 0  9998
2 57172  97.5035 245.7992 0013799  58.6760 301.5824 15.21052983166891
CUBESX-HSE 3 (RS42S)    
1 57178U 23091N   26187.18768581  .00013663  00000+0  44752-3 0  9994
2 57178  97.5077 253.0199 0010631  33.6645 326.5270 15.31728897167338
MONITOR-3 (RS58S)       
1 57180U 23091Q   26187.12370479  .00011290  00000+0  41192-3 0  9995
2 57180  97.5069 250.7123 0011930  40.6209 319.5919 15.28249787167187
MONITOR-4 (RS57S)       
1 57182U 23091S   26187.16718350  .00010451  00000+0  38052-3 0  9994
2 57182  97.5063 250.7284 0011950  40.9233 319.2901 15.28337312167194
MONITOR-2 (RS39S)       
1 57184U 23091U   26187.15290225  .00005210  00000+0  25111-3 0  9990
2 57184  97.5058 245.3142 0012201  53.2176 307.0176 15.19099027166833
SVYATOBOR 1 (RS60S)     
1 57187U 23091X   26187.13140240  .00009688  00000+0  36827-3 0  9991
2 57187  97.5075 251.0561 0009668  35.4890 324.6990 15.26959628167203
VIZARD-METEO (RS38S)    
1 57189U 23091Z   26187.16635383  .00017072  00000+0  47820-3 0  9994
2 57189  97.5078 257.0389 0006555  15.0076 345.1361 15.36672272167606
POLYTECH-UNIVERSE 3 (R*)
1 57191U 23091AB  26187.24340478  .00005997  00000+0  28626-3 0  9990
2 57191  97.5033 244.9082 0016749  66.6053 293.6941 15.19309642166843
UTMN 2 (RS27S)          
1 57203U 23091AP  26187.12969765  .00013670  00000+0  43683-3 0  9994
2 57203  97.5074 254.6181 0007701  23.2373 336.9216 15.32548250167440
