OBJECT_NAME,OBJECT_ID,EPOCH,MEAN_MOTION,ECCENTRICITY,INCLINATION,RA_OF_ASC_NODE,ARG_OF_PERICENTER,MEAN_ANOMALY,EPHEMERIS_TYPE,CLASSIFICATION_TYPE,NORAD_CAT_ID,ELEMENT_SET_NO,REV_AT_EPOCH,BSTAR,MEAN_MOTION_DOT,MEAN_MOTION_DDOT
CUBEBUG-2 (LO-74),2013-066AA,2026-07-06T06:53:30.519456,14.93930627,.00562854,97.8914,136.3484,325.7872,33.9725,0,U,39440,999,67984,.39945241E-3,.4323E-4,0
FUNCUBE-1 (AO-73),2013-066AE,2026-07-05T21:09:12.153888,15.09732686,.00374383,97.8282,158.7205,138.2012,222.2087,0,U,39444,999,68248,.53111399E-3,.8644E-4,0
UWE-3,2013-066AG,2026-07-05T20:43:05.753856,14.97161754,.00474155,97.8703,143.0659,257.1230,102.4692,0,U,39446,999,68037,.32714785E-3,.3804E-4,0
UNISAT-6,2014-033C,2026-07-06T02:13:38.019360,14.88340747,.0044941,97.7903,339.4747,7.9991,352.1932,0,U,40012,999,64897,.33265515E-3,.308E-4,0
DUCHIFAT-1,2014-033M,2026-07-06T02:53:02.621472,15.69113634,.00009894,98.0430,249.0015,273.0857,87.0289,0,U,40021,999,65871,.12107124E-2,.14213E-2,0
QB50P1,2014-033R,2026-07-05T23:56:27.527712,15.18568137,.0009703,98.0967,199.4657,152.3577,207.8173,0,U,40025,999,65588,.44554879E-3,.9146E-4,0
LILACSAT-2,2015-049K,2026-07-06T05:32:37.497984,15.52121757,.00076147,97.4624,224.8017,168.9328,191.2093,0,U,40908,999,59870,.27667102E-3,.16647E-3,0
FOX-1A (AO-85),2015-058D,2026-07-06T04:48:03.691872,14.91054611,.01316687,64.7733,219.8938,49.2258,312.0192,0,U,40967,999,11640,.24664479E-3,.2712E-4,0
CAS-2T & KS-1Q,2016-066G,2026-07-06T03:33:16.818048,14.44755715,.03426659,98.3815,262.6674,72.1432,291.6818,0,U,41847,999,50753,.21840692E-3,.1511E-4,0
RADFXSAT (FOX-1B),2017-073E,2026-07-06T01:24:16.013952,15.12980276,.01481629,97.4676,53.8880,263.3819,95.0530,0,U,43017,999,46824,.34122892E-3,.7818E-4,0
DIWATA-2B,2018-084H,2026-07-06T05:48:34.191360,15.00536738,.00130599,98.1213,24.2825,111.4950,248.7667,0,U,43678,999,41907,.96351808E-4,.1151E-4,0
ES'HAIL 2,2018-090A,2026-07-05T22:31:07.754880,1.00274247,.00022903,0.0170,67.3752,77.4049,142.7409,0,U,43700,999,2786,0,.158E-5,0
FOX-1CLIFF (AO-95),2018-099N,2026-07-06T03:33:14.236416,15.27141617,.00068937,97.4372,247.3283,278.7203,81.3255,0,U,43770,999,41611,.41897964E-3,.11089E-3,0
ITASAT,2018-099AE,2026-07-06T02:57:26.911296,15.19307426,.00107191,97.4014,238.2585,287.2873,72.7188,0,U,43786,999,41578,.31880126E-3,.6673E-4,0
JY1SAT (JO-97),2018-099AX,2026-07-05T14:55:56.187840,15.34293802,.00059834,97.4115,249.5264,188.7802,171.3337,0,U,43803,999,41645,.68069126E-3,.22572E-3,0
UWE-4,2018-111E,2026-07-05T18:47:25.949472,15.47365913,.00046839,97.5843,116.0459,235.7756,124.3050,0,U,43880,999,41365,.84254427E-3,.43173E-3,0
TIANYAN 01,2019-093C,2026-07-06T07:06:10.533600,14.86554685,.00143221,97.7520,259.0620,29.9533,330.2499,0,U,44881,999,35425,.20225025E-3,.1741E-4,0
RS-44 & BREEZE-KM R/B,2019-096E,2026-07-05T20:19:22.887552,12.79748982,.02185892,82.5236,327.3051,100.7408,261.8383,0,U,44909,999,30473,.72538404E-4,.31E-6,0
SALSAT,2020-068K,2026-07-05T23:33:58.355424,15.30081867,.00083275,97.8857,191.1942,228.1198,131.9331,0,U,46495,999,31823,.29469816E-3,.8505E-4,0
XW-3 (CAS-9),2021-131B,2026-07-06T06:48:23.911776,14.41377227,.00050549,98.4984,279.5705,52.9643,307.2007,0,U,50466,999,23786,.25904251E-3,.795E-5,0
GREENCUBE (IO-117),2022-080E,2026-07-05T05:42:53.849664,6.42583233,.0008935,70.1429,291.9681,285.8124,74.1550,0,U,53109,999,9322,0,-.3E-7,0
UMKA 1 (RS40S),2023-091G,2026-07-06T04:09:45.216864,15.21052983,.00137992,97.5035,245.7992,58.6760,301.5824,0,U,57172,999,16689,.30007887E-3,.6611E-4,0
CUBESX-HSE 3 (RS42S),2023-091N,2026-07-06T04:30:16.053984,15.31728897,.00106315,97.5077,253.0199,33.6645,326.5270,0,U,57178,999,16733,.44752021E-3,.13663E-3,0
MONITOR-3 (RS58S),2023-091Q,2026-07-06T02:58:08.093856,15.28249787,.00119308,97.5069,250.7123,40.6209,319.5919,0,U,57180,999,16718,.41191786E-3,.1129E-3,0
MONITOR-4 (RS57S),2023-091S,2026-07-06T04:00:44.654400,15.28337312,.00119509,97.5063,250.7284,40.9233,319.2901,0,U,57182,999,16719,.38052173E-3,.10451E-3,0
MONITOR-2 (RS39S),2023-091U,2026-07-06T03:40:10.754400,15.19099027,.00122016,97.5058,245.3142,53.2176,307.0176,0,U,57184,999,16683,.2511118E-3,.521E-4,0
SVYATOBOR 1 (RS60S),2023-091X,2026-07-06T03:09:13.167360,15.26959628,.00096686,97.5075,251.0561,35.4890,324.6990,0,U,57187,999,16720,.36826646E-3,.9688E-4,0
VIZARD-METEO (RS38S),2023-091Z,2026-07-06T03:59:32.970912,15.36672272,.00065558,97.5078,257.0389,15.0076,345.1361,0,U,57189,999,16760,.47820136E-3,.17072E-3,0
POLYTECH-UNIVERSE 3 (RS46S),2023-091AB,2026-07-06T05:50:30.172992,15.19309642,.00167498,97.5033,244.9082,66.6053,293.6941,0,U,57191,999,16684,.28625856E-3,.5997E-4,0
UTMN 2 (RS27S),2023-091AP,2026-07-06T03:06:45.876960,15.32548250,.00077011,97.5074,254.6181,23.2373,336.9216,0,U,57203,999,16744,.43683094E-3,.1367E-3,0
